{"type": "FeatureCollection", "features": [{"type": "Feature", "geometry": {"type": "Point", "coordinates": [35.504219, 33.881996]}, "properties": {"name": "حيدر و حجار", "beds": 100, "beds_estimated": true, "beds_source": "median-estimate", "hospital_type": "private", "ownership_source": "inferred", "operator": "", "operator_type": "", "osm_id": "559988394", "geom_type": "Point"}}, {"type": "Feature", "geometry": {"type": "Point", "coordinates": [35.375441, 33.099211]}, "properties": {"name": "مستشفى العناية", "beds": 100, "beds_estimated": true, "beds_source": "median-estimate", "hospital_type": "private", "ownership_source": "inferred", "operator": "", "operator_type": "", "osm_id": "330338737", "geom_type": "Polygon"}}, {"type": "Feature", "geometry": {"type": "Point", "coordinates": [35.368929, 33.550968]}, "properties": {"name": "Al Janoub Hospital", "beds": 90, "beds_estimated": false, "beds_source": "syndicate-match", "hospital_type": "private", "ownership_source": "tagged", "operator": "", "operator_type": "", "osm_id": "1035419371", "geom_type": "Polygon"}}, {"type": "Feature", "geometry": {"type": "Point", "coordinates": [35.274197, 33.434461]}, "properties": {"name": "مستشفى فقيه", "beds": 100, "beds_estimated": true, "beds_source": "median-estimate", "hospital_type": "private", "ownership_source": "inferred", "operator": "", "operator_type": "", "osm_id": "836365776", "geom_type": "Polygon"}}, {"type": "Feature", "geometry": {"type": "Point", "coordinates": [35.898107, 34.368849]}, "properties": {"name": "Centre Hospitalier du Nord", "beds": 144, "beds_estimated": false, "beds_source": "syndicate-match", "hospital_type": "private", "ownership_source": "tagged", "operator": "", "operator_type": "", "osm_id": "1041905069", "geom_type": "Polygon"}}, {"type": "Feature", "geometry": {"type": "Point", "coordinates": [35.513126, 33.841732]}, "properties": {"name": "مستشفی بلدیه برج البراجنه", "beds": 100, "beds_estimated": true, "beds_source": "median-estimate", "hospital_type": "private", "ownership_source": "inferred", "operator": "", "operator_type": "", "osm_id": "5235355321", "geom_type": "Point"}}, {"type": "Feature", "geometry": {"type": "Point", "coordinates": [35.83277, 34.431834]}, "properties": {"name": "مستشفى مظلوم", "beds": 75, "beds_estimated": false, "beds_source": "syndicate-arabic", "hospital_type": "private", "ownership_source": "tagged", "operator": "", "operator_type": "", "osm_id": "3938046522", "geom_type": "Point"}}, {"type": "Feature", "geometry": {"type": "Point", "coordinates": [35.829893, 34.44087]}, "properties": {"name": "مستشفى المنلا", "beds": 84, "beds_estimated": false, "beds_source": "syndicate-arabic", "hospital_type": "private", "ownership_source": "tagged", "operator": "", "operator_type": "", "osm_id": "4986254041", "geom_type": "Point"}}, {"type": "Feature", "geometry": {"type": "Point", "coordinates": [35.369923, 33.553364]}, "properties": {"name": "Health Medical Center", "beds": 100, "beds_estimated": true, "beds_source": "median-estimate", "hospital_type": "private", "ownership_source": "inferred", "operator": "", "operator_type": "", "osm_id": "1035420576", "geom_type": "Polygon"}}, {"type": "Feature", "geometry": {"type": "Point", "coordinates": [35.845734, 34.413735]}, "properties": {"name": "Rahma Medical Center", "beds": 100, "beds_estimated": true, "beds_source": "median-estimate", "hospital_type": "private", "ownership_source": "inferred", "operator": "", "operator_type": "", "osm_id": "837101482", "geom_type": "Polygon"}}, {"type": "Feature", "geometry": {"type": "Point", "coordinates": [35.697662, 33.801617]}, "properties": {"name": "Al Hariri Health Center", "beds": 100, "beds_estimated": true, "beds_source": "median-estimate", "hospital_type": "private", "ownership_source": "inferred", "operator": "", "operator_type": "", "osm_id": "9690248574", "geom_type": "Point"}}, {"type": "Feature", "geometry": {"type": "Point", "coordinates": [35.643438, 33.522264]}, "properties": {"name": "Hospital Machghara", "beds": 100, "beds_estimated": true, "beds_source": "median-estimate", "hospital_type": "private", "ownership_source": "inferred", "operator": "", "operator_type": "", "osm_id": "1180017582", "geom_type": "Polygon"}}, {"type": "Feature", "geometry": {"type": "Point", "coordinates": [35.573256, 33.899042]}, "properties": {"name": "مستشفى الأرز الزلقا", "beds": 70, "beds_estimated": false, "beds_source": "syndicate-arabic", "hospital_type": "private", "ownership_source": "tagged", "operator": "", "operator_type": "", "osm_id": "467941851", "geom_type": "Polygon"}}, {"type": "Feature", "geometry": {"type": "Point", "coordinates": [35.218125, 33.278056]}, "properties": {"name": "جبل عامل", "beds": 120, "beds_estimated": false, "beds_source": "syndicate-arabic", "hospital_type": "private", "ownership_source": "tagged", "operator": "", "operator_type": "", "osm_id": "5818614453", "geom_type": "Point"}}, {"type": "Feature", "geometry": {"type": "Point", "coordinates": [35.550622, 33.844919]}, "properties": {"name": "مستشفى السان شارل", "beds": 150, "beds_estimated": false, "beds_source": "syndicate-arabic", "hospital_type": "private", "ownership_source": "tagged", "operator": "", "operator_type": "", "osm_id": "2932842648", "geom_type": "Point"}}, {"type": "Feature", "geometry": {"type": "Point", "coordinates": [35.631183, 33.982275]}, "properties": {"name": "المركز الطبي للجامعة اللبنانية الأميركية - مستشفى سان جون", "beds": 100, "beds_estimated": true, "beds_source": "median-estimate", "hospital_type": "private", "ownership_source": "inferred", "operator": "", "operator_type": "", "osm_id": "1016333465", "geom_type": "Polygon"}}, {"type": "Feature", "geometry": {"type": "Point", "coordinates": [35.523148, 33.782867]}, "properties": {"name": "Bchamoun Hospital", "beds": 100, "beds_estimated": true, "beds_source": "median-estimate", "hospital_type": "private", "ownership_source": "inferred", "operator": "", "operator_type": "", "osm_id": "4661434309", "geom_type": "Point"}}, {"type": "Feature", "geometry": {"type": "Point", "coordinates": [35.224604, 33.253656]}, "properties": {"name": "المستشفى اللبناني الإيطالي", "beds": 100, "beds_estimated": true, "beds_source": "median-estimate", "hospital_type": "private", "ownership_source": "inferred", "operator": "", "operator_type": "", "osm_id": "4531962595", "geom_type": "Point"}}, {"type": "Feature", "geometry": {"type": "Point", "coordinates": [35.68749, 33.960219]}, "properties": {"name": "مستشفى سان جورج", "beds": 100, "beds_estimated": false, "beds_source": "syndicate-arabic", "hospital_type": "private", "ownership_source": "tagged", "operator": "", "operator_type": "", "osm_id": "837158168", "geom_type": "Polygon"}}, {"type": "Feature", "geometry": {"type": "Point", "coordinates": [35.870013, 34.443722]}, "properties": {"name": "Safad Hospital", "beds": 100, "beds_estimated": true, "beds_source": "median-estimate", "hospital_type": "private", "ownership_source": "inferred", "operator": "", "operator_type": "", "osm_id": "9367907207", "geom_type": "Point"}}, {"type": "Feature", "geometry": {"type": "Point", "coordinates": [35.375747, 33.560857]}, "properties": {"name": "مستشفى حمود", "beds": 300, "beds_estimated": false, "beds_source": "syndicate-arabic", "hospital_type": "private", "ownership_source": "tagged", "operator": "", "operator_type": "", "osm_id": "975076458", "geom_type": "Polygon"}}, {"type": "Feature", "geometry": {"type": "Point", "coordinates": [35.726615, 33.639281]}, "properties": {"name": "Kherbet Kanafar Governmental Hospital", "beds": 100, "beds_estimated": true, "beds_source": "median-estimate", "hospital_type": "public", "ownership_source": "tagged", "operator": "", "operator_type": "public", "osm_id": "779565645", "geom_type": "Polygon"}}, {"type": "Feature", "geometry": {"type": "Point", "coordinates": [35.519007, 33.872974]}, "properties": {"name": "مستشفى معربس", "beds": 20, "beds_estimated": false, "beds_source": "syndicate-arabic", "hospital_type": "private", "ownership_source": "tagged", "operator": "", "operator_type": "", "osm_id": "3561187768", "geom_type": "Point"}}, {"type": "Feature", "geometry": {"type": "Point", "coordinates": [35.518974, 33.882088]}, "properties": {"name": "أوتيل ديو", "beds": 430, "beds_estimated": false, "beds_source": "syndicate-arabic", "hospital_type": "private", "ownership_source": "tagged", "operator": "", "operator_type": "", "osm_id": "835250420", "geom_type": "Polygon"}}, {"type": "Feature", "geometry": {"type": "Point", "coordinates": [35.491963, 33.872609]}, "properties": {"name": "Beirut General Hospital", "beds": 100, "beds_estimated": true, "beds_source": "median-estimate", "hospital_type": "private", "ownership_source": "inferred", "operator": "", "operator_type": "", "osm_id": "547482392", "geom_type": "Polygon"}}, {"type": "Feature", "geometry": {"type": "Point", "coordinates": [35.559505, 33.848391]}, "properties": {"name": "مركز بلفو الطبي", "beds": 150, "beds_estimated": false, "beds_source": "syndicate-arabic", "hospital_type": "private", "ownership_source": "tagged", "operator": "", "operator_type": "", "osm_id": "994902555", "geom_type": "Polygon"}}, {"type": "Feature", "geometry": {"type": "Point", "coordinates": [35.600165, 33.878427]}, "properties": {"name": "Dar El Rahmeh", "beds": 300, "beds_estimated": false, "beds_source": "syndicate-match", "hospital_type": "private", "ownership_source": "tagged", "operator": "", "operator_type": "", "osm_id": "1043717503", "geom_type": "Polygon"}}, {"type": "Feature", "geometry": {"type": "Point", "coordinates": [35.57178, 33.900664]}, "properties": {"name": "Hôpital Haroun", "beds": 95, "beds_estimated": false, "beds_source": "syndicate-match", "hospital_type": "private", "ownership_source": "tagged", "operator": "", "operator_type": "", "osm_id": "9591749608", "geom_type": "Point"}}, {"type": "Feature", "geometry": {"type": "Point", "coordinates": [36.088615, 34.536097]}, "properties": {"name": "Dr Abdullah Al Rassi Governmental Hospital", "beds": 55, "beds_estimated": false, "beds_source": "public-moph-locator", "hospital_type": "public", "ownership_source": "tagged", "operator": "", "operator_type": "", "osm_id": "836106045", "geom_type": "Polygon"}}, {"type": "Feature", "geometry": {"type": "Point", "coordinates": [35.610768, 33.680855]}, "properties": {"name": "عين وزين", "beds": 137, "beds_estimated": false, "beds_source": "syndicate-arabic", "hospital_type": "private", "ownership_source": "tagged", "operator": "", "operator_type": "", "osm_id": "842359835", "geom_type": "Polygon"}}, {"type": "Feature", "geometry": {"type": "Point", "coordinates": [35.517786, 33.869944]}, "properties": {"name": "المستشفى الفرنسي سيدة لورد", "beds": 100, "beds_estimated": true, "beds_source": "median-estimate", "hospital_type": "private", "ownership_source": "inferred", "operator": "", "operator_type": "", "osm_id": "387287439", "geom_type": "Point"}}, {"type": "Feature", "geometry": {"type": "Point", "coordinates": [35.689062, 33.403483]}, "properties": {"name": "Hasbaya Governmental Hospital", "beds": 55, "beds_estimated": false, "beds_source": "public-moph-locator", "hospital_type": "public", "ownership_source": "tagged", "operator": "", "operator_type": "", "osm_id": "1015151934", "geom_type": "Polygon"}}, {"type": "Feature", "geometry": {"type": "Point", "coordinates": [35.586962, 33.363688]}, "properties": {"name": "مستشفى مرجعيون", "beds": 100, "beds_estimated": true, "beds_source": "median-estimate", "hospital_type": "private", "ownership_source": "inferred", "operator": "", "operator_type": "", "osm_id": "762359189", "geom_type": "Polygon"}}, {"type": "Feature", "geometry": {"type": "Point", "coordinates": [36.07472, 34.543191]}, "properties": {"name": "El Youssef Hospital Center", "beds": 120, "beds_estimated": false, "beds_source": "syndicate-match", "hospital_type": "private", "ownership_source": "tagged", "operator": "", "operator_type": "", "osm_id": "836104720", "geom_type": "Polygon"}}, {"type": "Feature", "geometry": {"type": "Point", "coordinates": [36.008459, 34.382435]}, "properties": {"name": "Sir Denniye Governmental Hospital", "beds": 38, "beds_estimated": false, "beds_source": "public-moph-locator", "hospital_type": "public", "ownership_source": "tagged", "operator": "", "operator_type": "public", "osm_id": "1049394290", "geom_type": "Polygon"}}, {"type": "Feature", "geometry": {"type": "Point", "coordinates": [35.648571, 34.045231]}, "properties": {"name": "Bouar Governmental Hospital", "beds": 39, "beds_estimated": false, "beds_source": "public-moph-locator", "hospital_type": "public", "ownership_source": "tagged", "operator": "", "operator_type": "", "osm_id": "837390755", "geom_type": "Polygon"}}, {"type": "Feature", "geometry": {"type": "Point", "coordinates": [35.371467, 33.558941]}, "properties": {"name": "الشاب", "beds": 100, "beds_estimated": true, "beds_source": "median-estimate", "hospital_type": "private", "ownership_source": "inferred", "operator": "", "operator_type": "", "osm_id": "583416785", "geom_type": "Polygon"}}, {"type": "Feature", "geometry": {"type": "Point", "coordinates": [36.26162, 34.567568]}, "properties": {"name": "مستشفى السلام - القبيات", "beds": 100, "beds_estimated": true, "beds_source": "median-estimate", "hospital_type": "private", "ownership_source": "inferred", "operator": "", "operator_type": "", "osm_id": "838325732", "geom_type": "Polygon"}}, {"type": "Feature", "geometry": {"type": "Point", "coordinates": [35.998022, 33.872146]}, "properties": {"name": "Tamnine General Hospital", "beds": 100, "beds_estimated": true, "beds_source": "median-estimate", "hospital_type": "private", "ownership_source": "inferred", "operator": "", "operator_type": "", "osm_id": "886725982", "geom_type": "Polygon"}}, {"type": "Feature", "geometry": {"type": "Point", "coordinates": [36.394054, 34.389942]}, "properties": {"name": "Batoul Hospital", "beds": 100, "beds_estimated": true, "beds_source": "median-estimate", "hospital_type": "private", "ownership_source": "inferred", "operator": "", "operator_type": "", "osm_id": "842714915", "geom_type": "Polygon"}}, {"type": "Feature", "geometry": {"type": "Point", "coordinates": [35.517294, 33.803164]}, "properties": {"name": "Medical 2000 Hospital", "beds": 100, "beds_estimated": true, "beds_source": "median-estimate", "hospital_type": "private", "ownership_source": "inferred", "operator": "", "operator_type": "", "osm_id": "7881768074", "geom_type": "Point"}}, {"type": "Feature", "geometry": {"type": "Point", "coordinates": [35.484337, 33.898703]}, "properties": {"name": "مستشفى بخعازي", "beds": 13, "beds_estimated": false, "beds_source": "syndicate-arabic", "hospital_type": "private", "ownership_source": "tagged", "operator": "", "operator_type": "", "osm_id": "6205014685", "geom_type": "Point"}}, {"type": "Feature", "geometry": {"type": "Point", "coordinates": [35.540347, 33.871357]}, "properties": {"name": "مستشفى المشرق", "beds": 100, "beds_estimated": true, "beds_source": "median-estimate", "hospital_type": "private", "ownership_source": "inferred", "operator": "", "operator_type": "", "osm_id": "287010523", "geom_type": "Polygon"}}, {"type": "Feature", "geometry": {"type": "Point", "coordinates": [35.53923, 33.84913]}, "properties": {"name": "مستشفى قلب يسوع", "beds": 234, "beds_estimated": false, "beds_source": "syndicate-arabic", "hospital_type": "private", "ownership_source": "tagged", "operator": "", "operator_type": "", "osm_id": "583705258", "geom_type": "Polygon"}}, {"type": "Feature", "geometry": {"type": "Point", "coordinates": [35.5041, 33.875182]}, "properties": {"name": "المقاصد", "beds": 200, "beds_estimated": false, "beds_source": "syndicate-arabic", "hospital_type": "private", "ownership_source": "tagged", "operator": "", "operator_type": "", "osm_id": "1052515181", "geom_type": "Polygon"}}, {"type": "Feature", "geometry": {"type": "Point", "coordinates": [35.584712, 33.901145]}, "properties": {"name": "مستشفى الصليب للأمراض العقلية والنفسية", "beds": 907, "beds_estimated": false, "beds_source": "syndicate-arabic", "hospital_type": "private", "ownership_source": "tagged", "operator": "", "operator_type": "", "osm_id": "844266947", "geom_type": "Polygon"}}, {"type": "Feature", "geometry": {"type": "Point", "coordinates": [35.486937, 33.863744]}, "properties": {"name": "مستشفى الزهراء", "beds": 200, "beds_estimated": false, "beds_source": "syndicate-arabic", "hospital_type": "private", "ownership_source": "tagged", "operator": "", "operator_type": "", "osm_id": "642515061", "geom_type": "Polygon"}}, {"type": "Feature", "geometry": {"type": "Point", "coordinates": [35.488982, 33.893654]}, "properties": {"name": "بيضون", "beds": 100, "beds_estimated": true, "beds_source": "median-estimate", "hospital_type": "private", "ownership_source": "inferred", "operator": "", "operator_type": "", "osm_id": "387478377", "geom_type": "Point"}}, {"type": "Feature", "geometry": {"type": "Point", "coordinates": [35.491178, 33.863239]}, "properties": {"name": "مستشفى الحريري الحكومي", "beds": 544, "beds_estimated": false, "beds_source": "public-wikipedia", "hospital_type": "public", "ownership_source": "tagged", "operator": "", "operator_type": "", "osm_id": "993570500", "geom_type": "Polygon"}}, {"type": "Feature", "geometry": {"type": "Point", "coordinates": [35.879656, 34.424184]}, "properties": {"name": "Family Medical Center", "beds": 100, "beds_estimated": true, "beds_source": "median-estimate", "hospital_type": "private", "ownership_source": "inferred", "operator": "", "operator_type": "", "osm_id": "1052112243", "geom_type": "Polygon"}}, {"type": "Feature", "geometry": {"type": "Point", "coordinates": [35.521242, 33.315138]}, "properties": {"name": "Mostawsef El Day3a", "beds": 100, "beds_estimated": true, "beds_source": "median-estimate", "hospital_type": "private", "ownership_source": "inferred", "operator": "", "operator_type": "", "osm_id": "8009028966", "geom_type": "Point"}}, {"type": "Feature", "geometry": {"type": "Point", "coordinates": [35.581659, 33.907416]}, "properties": {"name": "Abou Jaoudeh Hospital", "beds": 100, "beds_estimated": true, "beds_source": "median-estimate", "hospital_type": "private", "ownership_source": "tagged", "operator": "", "operator_type": "private", "osm_id": "1050031779", "geom_type": "Polygon"}}, {"type": "Feature", "geometry": {"type": "Point", "coordinates": [35.490938, 33.898064]}, "properties": {"name": "Centre Médical Clémenceau", "beds": 100, "beds_estimated": true, "beds_source": "median-estimate", "hospital_type": "private", "ownership_source": "inferred", "operator": "", "operator_type": "", "osm_id": "585187493", "geom_type": "Polygon"}}, {"type": "Feature", "geometry": {"type": "Point", "coordinates": [35.867739, 33.808427]}, "properties": {"name": "مستشفى البقاع", "beds": 100, "beds_estimated": true, "beds_source": "median-estimate", "hospital_type": "private", "ownership_source": "inferred", "operator": "", "operator_type": "", "osm_id": "1052150692", "geom_type": "Polygon"}}, {"type": "Feature", "geometry": {"type": "Point", "coordinates": [35.851067, 34.096198]}, "properties": {"name": "Kartaba Governmental Hospital", "beds": 100, "beds_estimated": true, "beds_source": "median-estimate", "hospital_type": "public", "ownership_source": "tagged", "operator": "", "operator_type": "", "osm_id": "1049099368", "geom_type": "Polygon"}}, {"type": "Feature", "geometry": {"type": "Point", "coordinates": [35.968222, 34.289852]}, "properties": {"name": "Ehden Governmental Hospital", "beds": 100, "beds_estimated": true, "beds_source": "median-estimate", "hospital_type": "public", "ownership_source": "tagged", "operator": "", "operator_type": "", "osm_id": "1013605093", "geom_type": "Polygon"}}, {"type": "Feature", "geometry": {"type": "Point", "coordinates": [35.853595, 33.814205]}, "properties": {"name": "Al-Maias Hospital", "beds": 100, "beds_estimated": true, "beds_source": "median-estimate", "hospital_type": "private", "ownership_source": "inferred", "operator": "", "operator_type": "", "osm_id": "8245813259", "geom_type": "Point"}}, {"type": "Feature", "geometry": {"type": "Point", "coordinates": [35.608505, 33.914989]}, "properties": {"name": "مستشفى سرحال", "beds": 60, "beds_estimated": false, "beds_source": "syndicate-arabic", "hospital_type": "private", "ownership_source": "tagged", "operator": "", "operator_type": "", "osm_id": "4461868278", "geom_type": "Point"}}, {"type": "Feature", "geometry": {"type": "Point", "coordinates": [35.88569, 34.399652]}, "properties": {"name": "Saydet Zgharta Hospital", "beds": 149, "beds_estimated": false, "beds_source": "syndicate-match", "hospital_type": "private", "ownership_source": "tagged", "operator": "", "operator_type": "", "osm_id": "2186083539", "geom_type": "Point"}}, {"type": "Feature", "geometry": {"type": "Point", "coordinates": [35.362409, 33.531653]}, "properties": {"name": "مستشفى الراعي", "beds": 100, "beds_estimated": false, "beds_source": "syndicate-arabic", "hospital_type": "private", "ownership_source": "tagged", "operator": "", "operator_type": "", "osm_id": "4966703572", "geom_type": "Point"}}, {"type": "Feature", "geometry": {"type": "Point", "coordinates": [35.859977, 34.437506]}, "properties": {"name": "Tripoli Governmental Hospital", "beds": 78, "beds_estimated": false, "beds_source": "public-moph-locator", "hospital_type": "public", "ownership_source": "tagged", "operator": "", "operator_type": "public", "osm_id": "838327593", "geom_type": "Polygon"}}, {"type": "Feature", "geometry": {"type": "Point", "coordinates": [35.530689, 33.893896]}, "properties": {"name": "مستشفى الجعيتاوي", "beds": 150, "beds_estimated": false, "beds_source": "syndicate-arabic", "hospital_type": "private", "ownership_source": "tagged", "operator": "", "operator_type": "", "osm_id": "284812334", "geom_type": "Polygon"}}, {"type": "Feature", "geometry": {"type": "Point", "coordinates": [35.386261, 33.547671]}, "properties": {"name": "Al Hamshari Hospital", "beds": 100, "beds_estimated": true, "beds_source": "median-estimate", "hospital_type": "private", "ownership_source": "inferred", "operator": "", "operator_type": "", "osm_id": "9367879223", "geom_type": "Point"}}, {"type": "Feature", "geometry": {"type": "Point", "coordinates": [35.489966, 33.897506]}, "properties": {"name": "مركز كليمنصو الطبي", "beds": 106, "beds_estimated": false, "beds_source": "osm-tag", "hospital_type": "private", "ownership_source": "inferred", "operator": "", "operator_type": "", "osm_id": "566103031", "geom_type": "Polygon"}}, {"type": "Feature", "geometry": {"type": "Point", "coordinates": [35.839943, 34.415195]}, "properties": {"name": "Dar Al Zahraa Hospital", "beds": 0, "beds_estimated": false, "beds_source": "syndicate-match", "hospital_type": "private", "ownership_source": "tagged", "operator": "", "operator_type": "", "osm_id": "842717025", "geom_type": "Polygon"}}, {"type": "Feature", "geometry": {"type": "Point", "coordinates": [35.498772, 33.843154]}, "properties": {"name": "الرسول الأعظم", "beds": 240, "beds_estimated": false, "beds_source": "syndicate-arabic", "hospital_type": "private", "ownership_source": "tagged", "operator": "", "operator_type": "", "osm_id": "236020132", "geom_type": "Polygon"}}, {"type": "Feature", "geometry": {"type": "Point", "coordinates": [35.652257, 34.116231]}, "properties": {"name": "N.D. Martine", "beds": 100, "beds_estimated": true, "beds_source": "median-estimate", "hospital_type": "private", "ownership_source": "inferred", "operator": "", "operator_type": "", "osm_id": "3199589439", "geom_type": "Point"}}, {"type": "Feature", "geometry": {"type": "Point", "coordinates": [35.528113, 33.859925]}, "properties": {"name": "مستشفى جبل لبنان", "beds": 150, "beds_estimated": false, "beds_source": "syndicate-arabic", "hospital_type": "private", "ownership_source": "tagged", "operator": "", "operator_type": "", "osm_id": "409468812", "geom_type": "Polygon"}}, {"type": "Feature", "geometry": {"type": "Point", "coordinates": [35.645641, 34.144124]}, "properties": {"name": "Saint Michel Hospital", "beds": 13, "beds_estimated": false, "beds_source": "syndicate-match", "hospital_type": "private", "ownership_source": "tagged", "operator": "", "operator_type": "", "osm_id": "1037370069", "geom_type": "Polygon"}}, {"type": "Feature", "geometry": {"type": "Point", "coordinates": [35.723642, 33.847025]}, "properties": {"name": "Al Jabal Hospital", "beds": 100, "beds_estimated": true, "beds_source": "median-estimate", "hospital_type": "private", "ownership_source": "inferred", "operator": "", "operator_type": "", "osm_id": "1052987139", "geom_type": "Polygon"}}, {"type": "Feature", "geometry": {"type": "Point", "coordinates": [35.527136, 33.844301]}, "properties": {"name": "مستشفى سانت تريز الحدث", "beds": 130, "beds_estimated": false, "beds_source": "syndicate-arabic", "hospital_type": "private", "ownership_source": "tagged", "operator": "", "operator_type": "", "osm_id": "519087818", "geom_type": "Polygon"}}, {"type": "Feature", "geometry": {"type": "Point", "coordinates": [35.538833, 33.835516]}, "properties": {"name": "مساشفى بعبدا الحكومي", "beds": 100, "beds_estimated": true, "beds_source": "median-estimate", "hospital_type": "public", "ownership_source": "tagged", "operator": "", "operator_type": "public", "osm_id": "835247321", "geom_type": "Polygon"}}, {"type": "Feature", "geometry": {"type": "Point", "coordinates": [35.490444, 33.392946]}, "properties": {"name": "مستشفى النجدة الشعبية", "beds": 75, "beds_estimated": false, "beds_source": "syndicate-arabic", "hospital_type": "private", "ownership_source": "tagged", "operator": "", "operator_type": "", "osm_id": "2706923700", "geom_type": "Point"}}, {"type": "Feature", "geometry": {"type": "Point", "coordinates": [35.452544, 33.352342]}, "properties": {"name": "Medrar Medical Center", "beds": 100, "beds_estimated": true, "beds_source": "median-estimate", "hospital_type": "private", "ownership_source": "inferred", "operator": "", "operator_type": "", "osm_id": "837160787", "geom_type": "Polygon"}}, {"type": "Feature", "geometry": {"type": "Point", "coordinates": [35.521165, 33.186934]}, "properties": {"name": "Mays El Jabal Governmental Hospital", "beds": 100, "beds_estimated": true, "beds_source": "median-estimate", "hospital_type": "public", "ownership_source": "tagged", "operator": "", "operator_type": "public", "osm_id": "1042395104", "geom_type": "Polygon"}}, {"type": "Feature", "geometry": {"type": "Point", "coordinates": [36.424349, 34.381839]}, "properties": {"name": "Hermel Governmental Hospital", "beds": 100, "beds_estimated": true, "beds_source": "median-estimate", "hospital_type": "public", "ownership_source": "tagged", "operator": "", "operator_type": "", "osm_id": "842710796", "geom_type": "Polygon"}}, {"type": "Feature", "geometry": {"type": "Point", "coordinates": [35.49893, 33.868079]}, "properties": {"name": "دار العجزة الاسلامية", "beds": 700, "beds_estimated": false, "beds_source": "syndicate-verified(nominatim-verified;merged)", "hospital_type": "private", "ownership_source": "tagged", "operator": "", "operator_type": "", "osm_id": "5087545", "geom_type": "Polygon"}}, {"type": "Feature", "geometry": {"type": "Point", "coordinates": [36.01079, 33.863964]}, "properties": {"name": "Rayak Hospital", "beds": 125, "beds_estimated": false, "beds_source": "syndicate-match", "hospital_type": "private", "ownership_source": "tagged", "operator": "", "operator_type": "", "osm_id": "1047497756", "geom_type": "Polygon"}}, {"type": "Feature", "geometry": {"type": "Point", "coordinates": [36.192006, 34.038475]}, "properties": {"name": "Al Sharq Al Awsat Hospital", "beds": 100, "beds_estimated": true, "beds_source": "median-estimate", "hospital_type": "private", "ownership_source": "inferred", "operator": "", "operator_type": "", "osm_id": "1116373785", "geom_type": "Polygon"}}, {"type": "Feature", "geometry": {"type": "Point", "coordinates": [35.137247, 33.12408]}, "properties": {"name": "مستشفى يونيفيل", "beds": 100, "beds_estimated": true, "beds_source": "median-estimate", "hospital_type": "private", "ownership_source": "inferred", "operator": "قوة الأمم المتحدة المؤقتة في لبنان", "operator_type": "", "osm_id": "261397620", "geom_type": "Polygon"}}, {"type": "Feature", "geometry": {"type": "Point", "coordinates": [35.912684, 33.83951]}, "properties": {"name": "Hospital Ma'alaqa", "beds": 100, "beds_estimated": true, "beds_source": "median-estimate", "hospital_type": "private", "ownership_source": "inferred", "operator": "", "operator_type": "", "osm_id": "302980703", "geom_type": "Polygon"}}, {"type": "Feature", "geometry": {"type": "Point", "coordinates": [35.840632, 34.437936]}, "properties": {"name": "مستشفى شاهين", "beds": 50, "beds_estimated": false, "beds_source": "syndicate-arabic", "hospital_type": "private", "ownership_source": "tagged", "operator": "", "operator_type": "", "osm_id": "4923267521", "geom_type": "Point"}}, {"type": "Feature", "geometry": {"type": "Point", "coordinates": [35.592275, 33.675271]}, "properties": {"name": "Al Irfan Hospital", "beds": 100, "beds_estimated": true, "beds_source": "median-estimate", "hospital_type": "private", "ownership_source": "inferred", "operator": "", "operator_type": "", "osm_id": "9135956837", "geom_type": "Point"}}, {"type": "Feature", "geometry": {"type": "Point", "coordinates": [36.161145, 33.983878]}, "properties": {"name": "مستشفى دار الأمل الجامعي", "beds": 220, "beds_estimated": false, "beds_source": "syndicate-verified(nominatim-verified;merged)", "hospital_type": "private", "ownership_source": "tagged", "operator": "", "operator_type": "", "osm_id": "844253921", "geom_type": "Polygon"}}, {"type": "Feature", "geometry": {"type": "Point", "coordinates": [35.484801, 33.898956]}, "properties": {"name": "CCCL", "beds": 100, "beds_estimated": true, "beds_source": "median-estimate", "hospital_type": "private", "ownership_source": "inferred", "operator": "", "operator_type": "", "osm_id": "9213700291", "geom_type": "Point"}}, {"type": "Feature", "geometry": {"type": "Point", "coordinates": [35.498947, 33.843843]}, "properties": {"name": "الرسول الأعظم للقلب", "beds": 100, "beds_estimated": true, "beds_source": "median-estimate", "hospital_type": "private", "ownership_source": "inferred", "operator": "", "operator_type": "", "osm_id": "483236077", "geom_type": "Polygon"}}, {"type": "Feature", "geometry": {"type": "Point", "coordinates": [35.537979, 33.870533]}, "properties": {"name": "مستشفى الحايك", "beds": 50, "beds_estimated": false, "beds_source": "syndicate-arabic", "hospital_type": "private", "ownership_source": "tagged", "operator": "", "operator_type": "", "osm_id": "409961805", "geom_type": "Polygon"}}, {"type": "Feature", "geometry": {"type": "Point", "coordinates": [35.907691, 33.778251]}, "properties": {"name": "مستشفى الناصرة", "beds": 100, "beds_estimated": true, "beds_source": "median-estimate", "hospital_type": "private", "ownership_source": "inferred", "operator": "", "operator_type": "", "osm_id": "1043115528", "geom_type": "Polygon"}}, {"type": "Feature", "geometry": {"type": "Point", "coordinates": [35.57417, 33.705129]}, "properties": {"name": "Deir El Qamar Governmental Hospital", "beds": 100, "beds_estimated": true, "beds_source": "median-estimate", "hospital_type": "public", "ownership_source": "tagged", "operator": "", "operator_type": "", "osm_id": "1136344912", "geom_type": "Polygon"}}, {"type": "Feature", "geometry": {"type": "Point", "coordinates": [35.715161, 33.98896]}, "properties": {"name": "El Hajj Hospital", "beds": 10, "beds_estimated": false, "beds_source": "syndicate-match", "hospital_type": "private", "ownership_source": "tagged", "operator": "", "operator_type": "", "osm_id": "1041715172", "geom_type": "Polygon"}}, {"type": "Feature", "geometry": {"type": "Point", "coordinates": [35.482849, 33.3896]}, "properties": {"name": "مستشفى النبطية الحكومي", "beds": 100, "beds_estimated": false, "beds_source": "public-moph-locator", "hospital_type": "public", "ownership_source": "tagged", "operator": "", "operator_type": "", "osm_id": "1053701650", "geom_type": "Polygon"}}, {"type": "Feature", "geometry": {"type": "Point", "coordinates": [35.832394, 34.442374]}, "properties": {"name": "Islamic Hospital", "beds": 100, "beds_estimated": true, "beds_source": "median-estimate", "hospital_type": "private", "ownership_source": "inferred", "operator": "", "operator_type": "", "osm_id": "1052244722", "geom_type": "Polygon"}}, {"type": "Feature", "geometry": {"type": "Point", "coordinates": [35.527, 33.83701]}, "properties": {"name": "مستشفى سان جورج", "beds": 100, "beds_estimated": true, "beds_source": "median-estimate", "hospital_type": "private", "ownership_source": "inferred", "operator": "", "operator_type": "", "osm_id": "311095794", "geom_type": "Polygon"}}, {"type": "Feature", "geometry": {"type": "Point", "coordinates": [35.821775, 34.298878]}, "properties": {"name": "Hôpital Borgi", "beds": 35, "beds_estimated": false, "beds_source": "syndicate-match", "hospital_type": "private", "ownership_source": "tagged", "operator": "", "operator_type": "", "osm_id": "1043703184", "geom_type": "Polygon"}}, {"type": "Feature", "geometry": {"type": "Point", "coordinates": [35.440258, 33.389183]}, "properties": {"name": "مستشفى الشيخ راغب حرب", "beds": 37, "beds_estimated": false, "beds_source": "syndicate-arabic", "hospital_type": "private", "ownership_source": "tagged", "operator": "", "operator_type": "", "osm_id": "1321433640", "geom_type": "Polygon"}}, {"type": "Feature", "geometry": {"type": "Point", "coordinates": [35.843059, 34.415918]}, "properties": {"name": "مستشفى الشفاء", "beds": 100, "beds_estimated": true, "beds_source": "median-estimate", "hospital_type": "private", "ownership_source": "inferred", "operator": "", "operator_type": "", "osm_id": "327364735", "geom_type": "Polygon"}}, {"type": "Feature", "geometry": {"type": "Point", "coordinates": [35.523949, 33.894219]}, "properties": {"name": "مستشفى الروم", "beds": 210, "beds_estimated": false, "beds_source": "syndicate-verified(nominatim-verified;merged)", "hospital_type": "private", "ownership_source": "tagged", "operator": "", "operator_type": "", "osm_id": "284813931", "geom_type": "Polygon"}}, {"type": "Feature", "geometry": {"type": "Point", "coordinates": [35.509325, 33.842733]}, "properties": {"name": "مستشفى البرج", "beds": 100, "beds_estimated": true, "beds_source": "median-estimate", "hospital_type": "private", "ownership_source": "inferred", "operator": "", "operator_type": "", "osm_id": "6501545587", "geom_type": "Point"}}, {"type": "Feature", "geometry": {"type": "Point", "coordinates": [35.506105, 33.853549]}, "properties": {"name": "مستشفى بهمن", "beds": 200, "beds_estimated": false, "beds_source": "syndicate-verified(nominatim-verified;merged)", "hospital_type": "private", "ownership_source": "tagged", "operator": "", "operator_type": "", "osm_id": "519084764", "geom_type": "Polygon"}}, {"type": "Feature", "geometry": {"type": "Point", "coordinates": [35.599083, 33.882981]}, "properties": {"name": "مستشفى ضهر الباشق", "beds": 100, "beds_estimated": true, "beds_source": "median-estimate", "hospital_type": "private", "ownership_source": "inferred", "operator": "", "operator_type": "", "osm_id": "443538011", "geom_type": "Polygon"}}, {"type": "Feature", "geometry": {"type": "Point", "coordinates": [35.837799, 34.349309]}, "properties": {"name": "Al Koura Hospital", "beds": 62, "beds_estimated": false, "beds_source": "syndicate-match", "hospital_type": "private", "ownership_source": "tagged", "operator": "", "operator_type": "", "osm_id": "843483047", "geom_type": "Polygon"}}, {"type": "Feature", "geometry": {"type": "Point", "coordinates": [35.905794, 33.841094]}, "properties": {"name": "Hôpital Tal Chiha", "beds": 125, "beds_estimated": false, "beds_source": "syndicate-match", "hospital_type": "private", "ownership_source": "tagged", "operator": "", "operator_type": "", "osm_id": "302980705", "geom_type": "Polygon"}}, {"type": "Feature", "geometry": {"type": "Point", "coordinates": [35.61273, 33.810568]}, "properties": {"name": "Al Iman Hospital", "beds": 52, "beds_estimated": false, "beds_source": "syndicate-match", "hospital_type": "private", "ownership_source": "tagged", "operator": "", "operator_type": "", "osm_id": "835055600", "geom_type": "Polygon"}}, {"type": "Feature", "geometry": {"type": "Point", "coordinates": [35.429713, 33.130531]}, "properties": {"name": "Salah Ghandour Hospital", "beds": 28, "beds_estimated": false, "beds_source": "syndicate-match", "hospital_type": "private", "ownership_source": "tagged", "operator": "", "operator_type": "", "osm_id": "837924565", "geom_type": "Polygon"}}, {"type": "Feature", "geometry": {"type": "Point", "coordinates": [35.666092, 34.251358]}, "properties": {"name": "Batroun Hospital", "beds": 100, "beds_estimated": true, "beds_source": "median-estimate", "hospital_type": "private", "ownership_source": "inferred", "operator": "", "operator_type": "", "osm_id": "790861847", "geom_type": "Polygon"}}, {"type": "Feature", "geometry": {"type": "Point", "coordinates": [35.472167, 33.613954]}, "properties": {"name": "مستشفى الإقليم المركزي", "beds": 100, "beds_estimated": true, "beds_source": "median-estimate", "hospital_type": "private", "ownership_source": "inferred", "operator": "", "operator_type": "", "osm_id": "303743461", "geom_type": "Point"}}, {"type": "Feature", "geometry": {"type": "Point", "coordinates": [35.840235, 34.43941]}, "properties": {"name": "مستشفی البيسار", "beds": 50, "beds_estimated": false, "beds_source": "syndicate-arabic", "hospital_type": "private", "ownership_source": "tagged", "operator": "", "operator_type": "", "osm_id": "4522495797", "geom_type": "Point"}}, {"type": "Feature", "geometry": {"type": "Point", "coordinates": [36.400254, 34.268937]}, "properties": {"name": "Universal Hospital", "beds": 20, "beds_estimated": false, "beds_source": "syndicate-match", "hospital_type": "private", "ownership_source": "tagged", "operator": "", "operator_type": "", "osm_id": "1052267856", "geom_type": "Polygon"}}, {"type": "Feature", "geometry": {"type": "Point", "coordinates": [35.838405, 34.442553]}, "properties": {"name": "Orange Nassau Governmental Hospital", "beds": 100, "beds_estimated": true, "beds_source": "median-estimate", "hospital_type": "public", "ownership_source": "tagged", "operator": "", "operator_type": "", "osm_id": "7824071079", "geom_type": "Point"}}, {"type": "Feature", "geometry": {"type": "Point", "coordinates": [36.124682, 34.46234]}, "properties": {"name": "Khalaf Al Habtoor Hospital", "beds": 100, "beds_estimated": true, "beds_source": "median-estimate", "hospital_type": "private", "ownership_source": "inferred", "operator": "", "operator_type": "", "osm_id": "1116366311", "geom_type": "Polygon"}}, {"type": "Feature", "geometry": {"type": "Point", "coordinates": [35.391633, 33.568745]}, "properties": {"name": "Kassab Hospital", "beds": 47, "beds_estimated": false, "beds_source": "syndicate-match", "hospital_type": "private", "ownership_source": "tagged", "operator": "", "operator_type": "", "osm_id": "7820608343", "geom_type": "Point"}}, {"type": "Feature", "geometry": {"type": "Point", "coordinates": [35.675233, 33.932448]}, "properties": {"name": "مستشفى بيت شباب", "beds": 130, "beds_estimated": false, "beds_source": "syndicate-arabic", "hospital_type": "private", "ownership_source": "tagged", "operator": "", "operator_type": "", "osm_id": "993574780", "geom_type": "Polygon"}}, {"type": "Feature", "geometry": {"type": "Point", "coordinates": [35.87821, 33.793633]}, "properties": {"name": "al-rahmeh hospital", "beds": 300, "beds_estimated": false, "beds_source": "syndicate-match", "hospital_type": "private", "ownership_source": "tagged", "operator": "", "operator_type": "", "osm_id": "7932090247", "geom_type": "Point"}}, {"type": "Feature", "geometry": {"type": "Point", "coordinates": [35.834269, 34.443464]}, "properties": {"name": "Al Hanan Hospital", "beds": 35, "beds_estimated": false, "beds_source": "syndicate-match", "hospital_type": "private", "ownership_source": "tagged", "operator": "", "operator_type": "", "osm_id": "7824062502", "geom_type": "Point"}}, {"type": "Feature", "geometry": {"type": "Point", "coordinates": [35.591478, 33.926949]}, "properties": {"name": "Eye and Ear Hospital", "beds": 50, "beds_estimated": false, "beds_source": "syndicate-match", "hospital_type": "private", "ownership_source": "tagged", "operator": "", "operator_type": "", "osm_id": "4907285125", "geom_type": "Point"}}, {"type": "Feature", "geometry": {"type": "Point", "coordinates": [36.016779, 34.251023]}, "properties": {"name": "Bcharreh Governmental Hospital", "beds": 32, "beds_estimated": false, "beds_source": "public-moph-locator", "hospital_type": "public", "ownership_source": "tagged", "operator": "", "operator_type": "", "osm_id": "1041902677", "geom_type": "Polygon"}}, {"type": "Feature", "geometry": {"type": "Point", "coordinates": [35.53, 33.902537]}, "properties": {"name": "Karantina Governmental Hospital", "beds": 100, "beds_estimated": true, "beds_source": "median-estimate", "hospital_type": "public", "ownership_source": "tagged", "operator": "", "operator_type": "", "osm_id": "7865407548", "geom_type": "Point"}}, {"type": "Feature", "geometry": {"type": "Point", "coordinates": [35.940541, 34.482505]}, "properties": {"name": "El Kheir Hospital", "beds": 82, "beds_estimated": false, "beds_source": "syndicate-match", "hospital_type": "private", "ownership_source": "tagged", "operator": "", "operator_type": "", "osm_id": "7824042910", "geom_type": "Point"}}, {"type": "Feature", "geometry": {"type": "Point", "coordinates": [36.205755, 34.010793]}, "properties": {"name": "Tatari Hospital", "beds": 35, "beds_estimated": false, "beds_source": "syndicate-match", "hospital_type": "private", "ownership_source": "tagged", "operator": "", "operator_type": "", "osm_id": "7875413039", "geom_type": "Point"}}, {"type": "Feature", "geometry": {"type": "Point", "coordinates": [35.656312, 33.905149]}, "properties": {"name": "مستشفى بحنس", "beds": 78, "beds_estimated": false, "beds_source": "syndicate-arabic", "hospital_type": "private", "ownership_source": "tagged", "operator": "", "operator_type": "", "osm_id": "802992023", "geom_type": "Polygon"}}, {"type": "Feature", "geometry": {"type": "Point", "coordinates": [35.381829, 33.54605]}, "properties": {"name": "Saida Governmental Hospital", "beds": 122, "beds_estimated": false, "beds_source": "public-moph-locator", "hospital_type": "public", "ownership_source": "tagged", "operator": "", "operator_type": "", "osm_id": "837909683", "geom_type": "Polygon"}}, {"type": "Feature", "geometry": {"type": "Point", "coordinates": [35.658861, 34.128162]}, "properties": {"name": "مستشفى سيدة المعونات جبيل", "beds": 100, "beds_estimated": true, "beds_source": "median-estimate", "hospital_type": "private", "ownership_source": "inferred", "operator": "", "operator_type": "", "osm_id": "3854937270", "geom_type": "Point"}}, {"type": "Feature", "geometry": {"type": "Point", "coordinates": [35.640727, 33.993095]}, "properties": {"name": "مستشفى سان لويس جونية", "beds": 65, "beds_estimated": false, "beds_source": "syndicate-arabic", "hospital_type": "private", "ownership_source": "tagged", "operator": "", "operator_type": "", "osm_id": "303946250", "geom_type": "Polygon"}}, {"type": "Feature", "geometry": {"type": "Point", "coordinates": [35.877756, 33.794181]}, "properties": {"name": "Taanayel General Hospital", "beds": 100, "beds_estimated": true, "beds_source": "median-estimate", "hospital_type": "private", "ownership_source": "inferred", "operator": "", "operator_type": "", "osm_id": "7813286239", "geom_type": "Point"}}, {"type": "Feature", "geometry": {"type": "Point", "coordinates": [35.64853, 34.019701]}, "properties": {"name": "Cortbawi Institute and Rehabilitation Hospital", "beds": 100, "beds_estimated": true, "beds_source": "median-estimate", "hospital_type": "private", "ownership_source": "inferred", "operator": "", "operator_type": "", "osm_id": "835242180", "geom_type": "Polygon"}}, {"type": "Feature", "geometry": {"type": "Point", "coordinates": [35.647804, 34.010288]}, "properties": {"name": "مركز كسروان الإستشفائي", "beds": 100, "beds_estimated": true, "beds_source": "median-estimate", "hospital_type": "private", "ownership_source": "inferred", "operator": "", "operator_type": "", "osm_id": "835053990", "geom_type": "Polygon"}}, {"type": "Feature", "geometry": {"type": "Point", "coordinates": [35.70632, 33.772054]}, "properties": {"name": "Azounieh Hospital", "beds": 100, "beds_estimated": true, "beds_source": "median-estimate", "hospital_type": "private", "ownership_source": "inferred", "operator": "", "operator_type": "", "osm_id": "1043711498", "geom_type": "Polygon"}}, {"type": "Feature", "geometry": {"type": "Point", "coordinates": [36.213705, 33.998908]}, "properties": {"name": "Baalbeck Governmental Hospital", "beds": 100, "beds_estimated": true, "beds_source": "median-estimate", "hospital_type": "public", "ownership_source": "tagged", "operator": "", "operator_type": "", "osm_id": "844260531", "geom_type": "Polygon"}}, {"type": "Feature", "geometry": {"type": "Point", "coordinates": [35.535152, 33.872122]}, "properties": {"name": "مستشفى اللبناني الكندي", "beds": 100, "beds_estimated": false, "beds_source": "syndicate-arabic", "hospital_type": "private", "ownership_source": "tagged", "operator": "", "operator_type": "", "osm_id": "305423504", "geom_type": "Polygon"}}, {"type": "Feature", "geometry": {"type": "Point", "coordinates": [35.858678, 33.819237]}, "properties": {"name": "مستشفى شتورا", "beds": 32, "beds_estimated": false, "beds_source": "syndicate-arabic", "hospital_type": "private", "ownership_source": "tagged", "operator": "", "operator_type": "", "osm_id": "3061157514", "geom_type": "Point"}}, {"type": "Feature", "geometry": {"type": "Point", "coordinates": [35.860786, 34.212675]}, "properties": {"name": "Tannourine Governmental Hospital", "beds": 100, "beds_estimated": true, "beds_source": "median-estimate", "hospital_type": "public", "ownership_source": "tagged", "operator": "", "operator_type": "", "osm_id": "306341135", "geom_type": "Polygon"}}, {"type": "Feature", "geometry": {"type": "Point", "coordinates": [35.513117, 33.873928]}, "properties": {"name": "المستشفى العسكري", "beds": 100, "beds_estimated": true, "beds_source": "median-estimate", "hospital_type": "public", "ownership_source": "tagged", "operator": "Lebanese Army", "operator_type": "military", "osm_id": "26804248", "geom_type": "Polygon"}}, {"type": "Feature", "geometry": {"type": "Point", "coordinates": [35.832422, 34.412535]}, "properties": {"name": "Hospital Haykel", "beds": 120, "beds_estimated": false, "beds_source": "syndicate-match", "hospital_type": "private", "ownership_source": "tagged", "operator": "", "operator_type": "", "osm_id": "995463969", "geom_type": "Polygon"}}, {"type": "Feature", "geometry": {"type": "Point", "coordinates": [35.515061, 33.895671]}, "properties": {"name": "Rosary Sisters Hospital", "beds": 50, "beds_estimated": false, "beds_source": "syndicate-match", "hospital_type": "private", "ownership_source": "tagged", "operator": "", "operator_type": "", "osm_id": "291591921", "geom_type": "Point"}}, {"type": "Feature", "geometry": {"type": "Point", "coordinates": [35.7016, 33.515975]}, "properties": {"name": "West Bekaa Hospital", "beds": 100, "beds_estimated": true, "beds_source": "median-estimate", "hospital_type": "private", "ownership_source": "inferred", "operator": "", "operator_type": "", "osm_id": "1052513262", "geom_type": "Polygon"}}, {"type": "Feature", "geometry": {"type": "Point", "coordinates": [35.373948, 33.556007]}, "properties": {"name": "لبيب", "beds": 120, "beds_estimated": false, "beds_source": "syndicate-arabic", "hospital_type": "private", "ownership_source": "tagged", "operator": "", "operator_type": "", "osm_id": "386796001", "geom_type": "Point"}}, {"type": "Feature", "geometry": {"type": "Point", "coordinates": [35.435531, 33.127767]}, "properties": {"name": "Bint Jbeil Governmental Hospital", "beds": 100, "beds_estimated": true, "beds_source": "median-estimate", "hospital_type": "public", "ownership_source": "tagged", "operator": "", "operator_type": "", "osm_id": "1047470386", "geom_type": "Polygon"}}, {"type": "Feature", "geometry": {"type": "Point", "coordinates": [36.231846, 34.592199]}, "properties": {"name": "Al Birah Hospital", "beds": 100, "beds_estimated": true, "beds_source": "median-estimate", "hospital_type": "private", "ownership_source": "inferred", "operator": "", "operator_type": "", "osm_id": "1050028052", "geom_type": "Polygon"}}, {"type": "Feature", "geometry": {"type": "Point", "coordinates": [35.484535, 33.898169]}, "properties": {"name": "مركز حليم وعايدة دانيال الأكاديمي والعلاجي", "beds": 100, "beds_estimated": true, "beds_source": "median-estimate", "hospital_type": "private", "ownership_source": "inferred", "operator": "American University Beirut Medical Centre", "operator_type": "", "osm_id": "7248082285", "geom_type": "Point"}}, {"type": "Feature", "geometry": {"type": "Point", "coordinates": [35.51514, 33.885217]}, "properties": {"name": "رزق", "beds": 160, "beds_estimated": false, "beds_source": "syndicate-arabic", "hospital_type": "private", "ownership_source": "tagged", "operator": "", "operator_type": "", "osm_id": "835249938", "geom_type": "Polygon"}}, {"type": "Feature", "geometry": {"type": "Point", "coordinates": [35.663242, 33.80747]}, "properties": {"name": "Al Ghanem Hospital", "beds": 100, "beds_estimated": true, "beds_source": "median-estimate", "hospital_type": "private", "ownership_source": "inferred", "operator": "", "operator_type": "", "osm_id": "1220497889", "geom_type": "Polygon"}}, {"type": "Feature", "geometry": {"type": "Point", "coordinates": [35.286155, 33.451894]}, "properties": {"name": "Kharroubi Hospital", "beds": 56, "beds_estimated": false, "beds_source": "syndicate-match", "hospital_type": "private", "ownership_source": "tagged", "operator": "Kharobi", "operator_type": "private", "osm_id": "836366988", "geom_type": "Polygon"}}, {"type": "Feature", "geometry": {"type": "Point", "coordinates": [36.406249, 34.398305]}, "properties": {"name": "Al Assi Hospital", "beds": 36, "beds_estimated": false, "beds_source": "syndicate-match", "hospital_type": "private", "ownership_source": "tagged", "operator": "", "operator_type": "", "osm_id": "94546142", "geom_type": "Polygon"}}, {"type": "Feature", "geometry": {"type": "Point", "coordinates": [35.826841, 34.4215]}, "properties": {"name": "Al Salam Hospital", "beds": 177, "beds_estimated": false, "beds_source": "syndicate-match", "hospital_type": "private", "ownership_source": "tagged", "operator": "", "operator_type": "", "osm_id": "301703319", "geom_type": "Polygon"}}, {"type": "Feature", "geometry": {"type": "Point", "coordinates": [35.380339, 33.254642]}, "properties": {"name": "Saint Peter", "beds": 100, "beds_estimated": true, "beds_source": "median-estimate", "hospital_type": "private", "ownership_source": "inferred", "operator": "", "operator_type": "", "osm_id": "770103343", "geom_type": "Polygon"}}, {"type": "Feature", "geometry": {"type": "Point", "coordinates": [35.581234, 33.538364]}, "properties": {"name": "Jezzine Governmental Hospital", "beds": 20, "beds_estimated": false, "beds_source": "public-moph-locator", "hospital_type": "public", "ownership_source": "tagged", "operator": "", "operator_type": "", "osm_id": "844274432", "geom_type": "Polygon"}}, {"type": "Feature", "geometry": {"type": "Point", "coordinates": [35.491837, 33.896955]}, "properties": {"name": "طراد", "beds": 71, "beds_estimated": false, "beds_source": "osm-tag", "hospital_type": "private", "ownership_source": "inferred", "operator": "", "operator_type": "", "osm_id": "585187512", "geom_type": "Polygon"}}, {"type": "Feature", "geometry": {"type": "Point", "coordinates": [35.574528, 33.678574]}, "properties": {"name": "Baakline Medical Center", "beds": 100, "beds_estimated": true, "beds_source": "median-estimate", "hospital_type": "private", "ownership_source": "inferred", "operator": "", "operator_type": "", "osm_id": "798537077", "geom_type": "Polygon"}}, {"type": "Feature", "geometry": {"type": "Point", "coordinates": [35.503586, 33.857884]}, "properties": {"name": "Sahel General Hospital", "beds": 152, "beds_estimated": false, "beds_source": "syndicate-match", "hospital_type": "private", "ownership_source": "tagged", "operator": "", "operator_type": "", "osm_id": "1052512174", "geom_type": "Polygon"}}, {"type": "Feature", "geometry": {"type": "Point", "coordinates": [35.828728, 34.418869]}, "properties": {"name": "Lebanon Heart Hospital", "beds": 100, "beds_estimated": true, "beds_source": "median-estimate", "hospital_type": "private", "ownership_source": "inferred", "operator": "", "operator_type": "", "osm_id": "2910404163", "geom_type": "Point"}}, {"type": "Feature", "geometry": {"type": "Point", "coordinates": [35.387749, 33.582896]}, "properties": {"name": "Sidon Turkish Trauma and Rehabilitation Hospital", "beds": 100, "beds_estimated": true, "beds_source": "median-estimate", "hospital_type": "private", "ownership_source": "inferred", "operator": "", "operator_type": "", "osm_id": "976693718", "geom_type": "Polygon"}}, {"type": "Feature", "geometry": {"type": "Point", "coordinates": [35.627705, 33.981839]}, "properties": {"name": "Hôpital Notre Dame du Liban", "beds": 140, "beds_estimated": false, "beds_source": "syndicate-match", "hospital_type": "private", "ownership_source": "tagged", "operator": "", "operator_type": "", "osm_id": "475308923", "geom_type": "Polygon"}}, {"type": "Feature", "geometry": {"type": "Point", "coordinates": [35.916323, 33.841154]}, "properties": {"name": "مستشفى رئيس الياس الهراوي الحكومي", "beds": 59, "beds_estimated": false, "beds_source": "public-moph-locator", "hospital_type": "public", "ownership_source": "tagged", "operator": "", "operator_type": "", "osm_id": "842721483", "geom_type": "Polygon"}}, {"type": "Feature", "geometry": {"type": "Point", "coordinates": [35.486759, 33.896778]}, "properties": {"name": "نجار", "beds": 53, "beds_estimated": false, "beds_source": "osm-tag", "hospital_type": "private", "ownership_source": "inferred", "operator": "", "operator_type": "", "osm_id": "512476202", "geom_type": "Point"}}, {"type": "Feature", "geometry": {"type": "Point", "coordinates": [35.493159, 33.365134]}, "properties": {"name": "مستشفى غندور", "beds": 100, "beds_estimated": true, "beds_source": "median-estimate", "hospital_type": "private", "ownership_source": "inferred", "operator": "", "operator_type": "", "osm_id": "891216041", "geom_type": "Polygon"}}, {"type": "Feature", "geometry": {"type": "Point", "coordinates": [35.415446, 33.196912]}, "properties": {"name": "مستشفى تبنين", "beds": 100, "beds_estimated": true, "beds_source": "median-estimate", "hospital_type": "private", "ownership_source": "inferred", "operator": "", "operator_type": "", "osm_id": "837156782", "geom_type": "Polygon"}}, {"type": "Feature", "geometry": {"type": "Point", "coordinates": [35.895756, 33.853072]}, "properties": {"name": "مستشفة خوري", "beds": 120, "beds_estimated": false, "beds_source": "syndicate-arabic", "hospital_type": "private", "ownership_source": "tagged", "operator": "", "operator_type": "", "osm_id": "1181973647", "geom_type": "Polygon"}}, {"type": "Feature", "geometry": {"type": "Point", "coordinates": [35.289218, 33.459725]}, "properties": {"name": "Alaa Eddine Hospital", "beds": 100, "beds_estimated": true, "beds_source": "median-estimate", "hospital_type": "private", "ownership_source": "inferred", "operator": "", "operator_type": "", "osm_id": "1015254075", "geom_type": "Polygon"}}, {"type": "Feature", "geometry": {"type": "Point", "coordinates": [35.22261, 33.281818]}, "properties": {"name": "Hiram Hospital", "beds": 90, "beds_estimated": false, "beds_source": "syndicate-match", "hospital_type": "private", "ownership_source": "tagged", "operator": "", "operator_type": "", "osm_id": "1012187442", "geom_type": "Polygon"}}, {"type": "Feature", "geometry": {"type": "Point", "coordinates": [35.803742, 33.629968]}, "properties": {"name": "Hamed Farhat Hospital", "beds": 84, "beds_estimated": false, "beds_source": "syndicate-match", "hospital_type": "private", "ownership_source": "tagged", "operator": "", "operator_type": "", "osm_id": "682712730", "geom_type": "Polygon"}}, {"type": "Feature", "geometry": {"type": "Point", "coordinates": [35.525178, 33.857884]}, "properties": {"name": "Al Hayat Hospital", "beds": 120, "beds_estimated": false, "beds_source": "syndicate-match", "hospital_type": "private", "ownership_source": "tagged", "operator": "", "operator_type": "", "osm_id": "9703619234", "geom_type": "Point"}}, {"type": "Feature", "geometry": {"type": "Point", "coordinates": [36.078963, 34.549967]}, "properties": {"name": "Akkar Rahal Hospital", "beds": 100, "beds_estimated": false, "beds_source": "syndicate-match", "hospital_type": "private", "ownership_source": "tagged", "operator": "", "operator_type": "private", "osm_id": "836107076", "geom_type": "Polygon"}}, {"type": "Feature", "geometry": {"type": "Point", "coordinates": [35.826953, 33.509611]}, "properties": {"name": "Rachaya Governmental Hospital", "beds": 44, "beds_estimated": false, "beds_source": "public-moph-locator", "hospital_type": "public", "ownership_source": "tagged", "operator": "", "operator_type": "", "osm_id": "843152614", "geom_type": "Polygon"}}, {"type": "Feature", "geometry": {"type": "Point", "coordinates": [35.291737, 33.215184]}, "properties": {"name": "Qana Governmental Hospital", "beds": 100, "beds_estimated": true, "beds_source": "median-estimate", "hospital_type": "public", "ownership_source": "tagged", "operator": "", "operator_type": "public", "osm_id": "1019828085", "geom_type": "Polygon"}}, {"type": "Feature", "geometry": {"type": "Point", "coordinates": [35.523832, 33.866451]}, "properties": {"name": "Centre Médical Libano-Canadien", "beds": 100, "beds_estimated": false, "beds_source": "syndicate-match", "hospital_type": "private", "ownership_source": "tagged", "operator": "", "operator_type": "", "osm_id": "6775119697", "geom_type": "Point"}}, {"type": "Feature", "geometry": {"type": "Point", "coordinates": [35.597413, 33.904453]}, "properties": {"name": "مركز الشرق الاوسط الصحي الجامعي", "beds": 200, "beds_estimated": false, "beds_source": "syndicate-arabic", "hospital_type": "private", "ownership_source": "tagged", "operator": "", "operator_type": "", "osm_id": "445619060", "geom_type": "Polygon"}}, {"type": "Feature", "geometry": {"type": "Point", "coordinates": [35.484933, 33.898559]}, "properties": {"name": "مستشفى الجامعة الأمريكية", "beds": 400, "beds_estimated": false, "beds_source": "syndicate-verified(wikidata;merged)", "hospital_type": "private", "ownership_source": "tagged", "operator": "", "operator_type": "", "osm_id": "713413597", "geom_type": "Point"}}, {"type": "Feature", "geometry": {"type": "Point", "coordinates": [35.554991, 33.893201]}, "properties": {"name": "مستشفى مار يوسف", "beds": 159, "beds_estimated": false, "beds_source": "syndicate-arabic", "hospital_type": "private", "ownership_source": "tagged", "operator": "", "operator_type": "", "osm_id": "835863086", "geom_type": "Polygon"}}, {"type": "Feature", "geometry": {"type": "Point", "coordinates": [35.915442, 34.472331]}, "properties": {"name": "Minieh Governmental Hospital", "beds": 100, "beds_estimated": true, "beds_source": "median-estimate", "hospital_type": "public", "ownership_source": "tagged", "operator": "", "operator_type": "", "osm_id": "838326801", "geom_type": "Polygon"}}, {"type": "Feature", "geometry": {"type": "Point", "coordinates": [35.576706, 33.865593]}, "properties": {"name": "Infirmerie", "beds": 100, "beds_estimated": true, "beds_source": "median-estimate", "hospital_type": "private", "ownership_source": "inferred", "operator": "Collège des Frères Mont La Salle", "operator_type": "", "osm_id": "5924328305", "geom_type": "Point"}}, {"type": "Feature", "geometry": {"type": "Point", "coordinates": [36.189792, 34.037694]}, "properties": {"name": "DarAl Hekme", "beds": 100, "beds_estimated": true, "beds_source": "median-estimate", "hospital_type": "private", "ownership_source": "inferred", "operator": "", "operator_type": "", "osm_id": "1116373787", "geom_type": "Polygon"}}, {"type": "Feature", "geometry": {"type": "Point", "coordinates": [35.584888, 33.685012]}, "properties": {"name": "Pet market & Vet hospital", "beds": 100, "beds_estimated": true, "beds_source": "median-estimate", "hospital_type": "private", "ownership_source": "tagged", "operator": "veterinarian", "operator_type": "business", "osm_id": "8210281883", "geom_type": "Point"}}, {"type": "Feature", "geometry": {"type": "Point", "coordinates": [35.38983, 33.566386]}, "properties": {"name": "Nakib Hospital", "beds": 100, "beds_estimated": true, "beds_source": "median-estimate", "hospital_type": "private", "ownership_source": "tagged", "operator": "Trace", "operator_type": "private", "osm_id": "975076467", "geom_type": "Polygon"}}, {"type": "Feature", "geometry": {"type": "Point", "coordinates": [35.9125, 33.833435]}, "properties": {"name": "Hôpital Libano-Français", "beds": 132, "beds_estimated": false, "beds_source": "syndicate-match", "hospital_type": "private", "ownership_source": "tagged", "operator": "", "operator_type": "", "osm_id": "3094233276", "geom_type": "Point"}}, {"type": "Feature", "geometry": {"type": "Point", "coordinates": [35.888557, 33.782518]}, "properties": {"name": "Hariri Medical Center Taanayel", "beds": 100, "beds_estimated": true, "beds_source": "median-estimate", "hospital_type": "private", "ownership_source": "inferred", "operator": "", "operator_type": "", "osm_id": "837165388", "geom_type": "Polygon"}}, {"type": "Feature", "geometry": {"type": "Point", "coordinates": [35.37747, 33.557155]}, "properties": {"name": "دلاعة", "beds": 100, "beds_estimated": false, "beds_source": "syndicate-arabic", "hospital_type": "private", "ownership_source": "tagged", "operator": "", "operator_type": "", "osm_id": "386795333", "geom_type": "Point"}}, {"type": "Feature", "geometry": {"type": "Point", "coordinates": [35.43355, 33.617152]}, "properties": {"name": "Sibline Governmental Hospital", "beds": 57, "beds_estimated": false, "beds_source": "public-moph-locator", "hospital_type": "public", "ownership_source": "tagged", "operator": "", "operator_type": "", "osm_id": "943312183", "geom_type": "Polygon"}}, {"type": "Feature", "geometry": {"type": "Point", "coordinates": [35.830454, 34.435415]}, "properties": {"name": "مستشفى النيني", "beds": 128, "beds_estimated": false, "beds_source": "syndicate-arabic", "hospital_type": "private", "ownership_source": "tagged", "operator": "", "operator_type": "", "osm_id": "1857670915", "geom_type": "Point"}}, {"type": "Feature", "geometry": {"type": "Point", "coordinates": [35.587414, 33.910062]}, "properties": {"name": "Saideh Hospital", "beds": 600, "beds_estimated": false, "beds_source": "manual", "hospital_type": "private", "ownership_source": "inferred", "operator": "", "operator_type": "", "osm_id": "", "geom_type": "Point"}}]}